[{"OBJECT_NAME":"PERUSAT 1","OBJECT_ID":"2016-058A","EPOCH":"2026-03-09T23:16:32.302848","MEAN_MOTION":14.58548827,"ECCENTRICITY":0.00012113,"INCLINATION":98.2091,"RA_OF_ASC_NODE":143.8668,"ARG_OF_PERICENTER":91.7691,"MEAN_ANOMALY":268.3647,"EPHEMERIS_TYPE":0,"CLASSIFICATION_TYPE":"U","NORAD_CAT_ID":41770,"ELEMENT_SET_NO":999,"REV_AT_EPOCH":50463,"BSTAR":7.1568116e-5,"MEAN_MOTION_DOT":2.87e-6,"MEAN_MOTION_DDOT":0},{"OBJECT_NAME":"TITAN 3C TRANSTAGE DEB","OBJECT_ID":"1965-082Q","EPOCH":"2026-03-09T00:45:49.931424","MEAN_MOTION":14.64275063,"ECCENTRICITY":0.00410681,"INCLINATION":32.1202,"RA_OF_ASC_NODE":38.9734,"ARG_OF_PERICENTER":228.9057,"MEAN_ANOMALY":130.8038,"EPHEMERIS_TYPE":0,"CLASSIFICATION_TYPE":"U","NORAD_CAT_ID":1653,"ELEMENT_SET_NO":999,"REV_AT_EPOCH":19681,"BSTAR":9.7656448e-5,"MEAN_MOTION_DOT":5.71e-6,"MEAN_MOTION_DDOT":0}]
